LINGQIAO VIDEO A        
1 40959U 15057B   26195.18166174  .00000086  00000+0  18847-4 0  9997
2 40959  97.6626 188.6538 0016569 176.2784 183.8554 14.77425081579392
LINGQIAO VIDEO B        
1 40960U 15057C   26195.22412110  .00000847  00000+0  12519-3 0  9992
2 40960  97.6591 189.8505 0016761 176.1604 183.9739 14.77533139579442
JILIN-1                 
1 40961U 15057D   26195.15782446  .00000405  00000+0  62416-4 0  9999
2 40961  97.6519 193.1871 0017129 170.2251 189.9298 14.78200523579590
FOX-1A (AO-85)          
1 40967U 15058D   26195.18138659  .00001712  00000+0  16126-3 0  9998
2 40967  64.7724 195.0853 0132264  46.1915 315.0044 14.91084963117598
SINOD-D 1               
1 40968U 15058E   26195.08556168  .00002845  00000+0  23189-3 0  9992
2 40968  64.7733 174.6652 0120966  42.5767 318.4648 14.96081529120681
ELEKTRO-L 2             
1 41105U 15074A   26194.99508521 -.00000128  00000+0  00000+0 0  9999
2 41105   6.7582  70.1887 0000974 214.5456 350.8546  1.00272120 38770
DAMPE                   
1 41173U 15078A   26195.16476935  .00000637  00000+0  23938-4 0  9995
2 41173  97.4559 200.7656 0011675 349.3147  10.7844 15.30851650588676
ORBCOMM FM110           
1 41182U 15081D   26195.08697596  .00000161  00000+0  70352-4 0  9992
2 41182  47.0007 234.2501 0003559 218.6443 141.4189 14.58917166561551
ORBCOMM FM112           
1 41184U 15081F   26195.19390351  .00000307  00000+0  10101-3 0  9992
2 41184  46.9979 142.5348 0003747 324.3551  35.7084 14.58937849562890
ORBCOMM FM113           
1 41185U 15081G   26194.96600615  .00000120  00000+0  61583-4 0  9998
2 41185  46.9998 144.0028 0002291 316.8061  43.2645 14.58881339562843
ORBCOMM FM108           
1 41187U 15081J   26194.99651072  .00000281  00000+0  95665-4 0  9992
2 41187  47.0054  55.4394 0002725 317.7422  42.3254 14.58909612563992
ORBCOMM FM117           
1 41188U 15081K   26195.03071966  .00000261  00000+0  91426-4 0  9996
2 41188  47.0017  53.9050 0003142 325.0057  35.0622 14.58896753564040
ORBCOMM FM116           
1 41189U 15081L   26194.25753558  .00000069  00000+0  50849-4 0  9994
2 41189  47.0013 147.3497 0001541 225.9507 134.1252 14.58904456562744
ZIYUAN 3-02 (ZY 3-02)   
1 41556U 16033A   26195.22306757  .00003171  00000+0  14400-3 0  9992
2 41556  97.3831 270.4773 0013961 188.2758 171.8249 15.21429113562096
CARTOSAT-2C             
1 41599U 16040A   26195.19668535  .00001932  00000+0  94813-4 0  9998
2 41599  97.4473 254.8007 0009592  48.5812 311.6245 15.19259257557817
LAPAN-A3                
1 41603U 16040E   26195.21118523  .00001940  00000+0  62632-4 0  9997
2 41603  97.1504 190.4735 0008266 280.5553  79.4759 15.33274204558955
GAOFEN-3                
1 41727U 16049A   26195.21075344  .00000091  00000+0  40742-4 0  9990
2 41727  98.4012 202.5889 0001784  85.8823 274.2571 14.42218953522540
CAS-2T & KS-1Q          
1 41847U 16066G   26195.18162937  .00000568  00000+0  87908-4 0  9997
2 41847  98.3813 270.6089 0342292  47.8306 315.1423 14.44769101508694
YUNHAI-1 01             
1 41857U 16068A   26195.19602244  .00000315  00000+0  13206-3 0  9990
2 41857  98.5845 205.9517 0003277 351.6928   8.4201 14.32722146505690
RESOURCESAT-2A          
1 41877U 16074A   26195.16802394 -.00000020  00000+0  10905-4 0  9992
2 41877  98.7528 268.4505 0002434  31.4676 328.6647 14.21608535498134
TANSAT                  
1 41898U 16081A   26195.18283219  .00000320  00000+0  77223-4 0  9992
2 41898  98.5365 196.2395 0019371 223.4217 136.5457 14.59971523508566
JILIN-1 03              
1 41914U 17002B   26195.21789752  .00008099  00000+0  19041-3 0  9996
2 41914  97.1945 201.9331 0007908  82.0483 278.1662 15.42215576526029
CARTOSAT-2D             
1 41948U 17008A   26195.16259588  .00003609  00000+0  17425-3 0  9998
2 41948  97.4099 253.9624 0005892 142.0490 218.1161 15.19282760521673
CARTOSAT-2E             
1 42767U 17036C   26195.18034387  .00003277  00000+0  15868-3 0  9999
2 42767  97.4263 254.5358 0003154 193.3081 166.8071 15.19251181502245
